{
  "norad_id": 64083,
  "name": "STARLINK-34126",
  "history": [
    {
      "epoch": "2026-03-28T07:08:52.232064",
      "apogee_km": 484.07145620164465,
      "perigee_km": 481.9403852104733,
      "latitude_deg": -30.104667082829426,
      "longitude_deg": -103.10863103996962,
      "semi_major_axis_km": 6861.142920706058,
      "eccentricity": 0.0001553,
      "inclination_deg": 43.0044,
      "raan_deg": 96.692,
      "arg_perigee_deg": 280.6339,
      "mean_anomaly_deg": 79.4338,
      "mean_motion_rev_day": 15.27594419
    }
  ]
}